ION SCV-004             
1 50993U 22002K   26068.68892644  .00006538  00000+0  23198-3 0  9998
2 50993  97.2961 128.2294 0007216   1.6783 358.4480 15.29369331230088
STARLINK-31223          
1 58865U 24019N   26068.50293305  .00001458  00000+0  62520-4 0  9993
2 58865  42.9990 249.9997 0001258 224.9232 135.1518 15.27570450119030
